[Satellite]
VERSION=1.1
NAME=IRIDIUM 138 [+]
NICKNAME=IRIDIUM 138 [+]
TLE1=1 43071U 17083B   18020.85056275  .00000063  00000-0  15339-4 0  9997
TLE2=2 43071  86.3988 164.7110 0002045  88.6014 271.5416 14.34217853  4207
